ONEWEB-0068             
1 45446U 20020Y   26193.56017589  .00000199  00000+0  52635-3 0  9991
2 45446  87.8890  16.0125 0001631  90.2332 269.8983 13.11418423305922
ONEWEB-0046             
1 45447U 20020Z   26193.55182133 -.00000120  00000+0 -37433-3 0  9994
2 45447  87.8880  16.0179 0001666  82.1064 278.0253 13.11419040305930
ONEWEB-0063             
1 45448U 20020AA  26193.50450002  .00000432  00000+0  11818-2 0  9995
2 45448  87.8889  16.0285 0001918  79.5275 280.6069 13.11415078306013
ONEWEB-0019             
1 45449U 20020AB  26193.54320170 -.00000414  00000+0 -12037-2 0  9998
2 45449  87.8898  16.0081 0002276  99.6552 260.4834 13.11408671305866
ONEWEB-0094             
1 45450U 20020AC  26193.48969605  .00000008  00000+0 -13495-4 0  9994
2 45450  87.9152   0.8170 0001769  98.2853 261.8479 13.17648839309645
ONEWEB-0087             
1 45451U 20020AD  26193.51438944  .00000107  00000+0  26694-3 0  9999
2 45451  87.8920  16.0055 0001581  87.7010 272.4299 13.11414707305901
ONEWEB-0082             
1 45452U 20020AE  26193.58729872  .00000292  00000+0  78711-3 0  9992
2 45452  87.8889  16.0030 0001379  83.0565 277.0720 13.11415292306000
ONEWEB-0050             
1 45453U 20020AF  26193.58866773  .00000957  00000+0  95966-4 0  9995
2 45453  88.9282 229.7600 0001743 182.5122 177.6098 14.90467508344162
ONEWEB-0034             
1 45454U 20020AG  26193.54859271 -.00000217  00000+0 -64698-3 0  9995
2 45454  87.8881  16.0188 0001811  87.8614 272.2721 13.11417854305919
ONEWEB-0060             
1 45455U 20020AH  26193.57981310  .00000503  00000+0  13839-2 0  9995
2 45455  87.8886  16.0105 0001123 119.1770 240.9470 13.11415575305878
ONEWEB-0086             
1 45456U 20020AJ  26193.55847573  .00000155  00000+0  40147-3 0  9992
2 45456  87.8892  16.0114 0001729 114.8228 245.3080 13.11418727305933
ONEWEB-0088             
1 45457U 20020AK  26193.53655412 -.00000499  00000+0 -14431-2 0  9999
2 45457  87.8898  15.9905 0001771  76.6884 283.4442 13.11416955305864
ONEWEB-0102             
1 47258U 20100A   26193.44470054 -.00000284  00000+0 -82610-3 0  9993
2 47258  87.8957 345.6519 0002003 103.3890 256.7462 13.12443071268042
ONEWEB-0109             
1 47259U 20100B   26193.83435638 -.00000441  00000+0 -12625-2 0  9999
2 47259  87.8969 345.5606 0001980  96.1702 263.9652 13.12443234267924
ONEWEB-0110             
1 47260U 20100C   26193.78524286  .00000215  00000+0  56287-3 0  9993
2 47260  87.8967 345.5538 0001779 104.8003 255.3323 13.12443508268087
ONEWEB-0111             
1 47261U 20100D   26193.81572795 -.00000052  00000+0 -17897-3 0  9991
2 47261  87.8967 345.5666 0001745  95.7636 264.3692 13.12441399267920
ONEWEB-0114             
1 47262U 20100E   26193.84621620 -.00000198  00000+0 -58686-3 0  9999
2 47262  87.8973 345.5579 0002088  95.0063 265.1304 13.12443402267880
ONEWEB-0117             
1 47263U 20100F   26193.83774352 -.00000411  00000+0 -11771-2 0  9991
2 47263  87.8965 345.5501 0001827  96.8328 263.3009 13.12442790267892
ONEWEB-0118             
1 47264U 20100G   26193.79540109  .00000477  00000+0  12895-2 0  9996
2 47264  87.8965 345.5611 0001978  85.0712 275.0642 13.12442346268081
ONEWEB-0119             
1 47265U 20100H   26193.82080866 -.00000235  00000+0 -68730-3 0  9994
2 47265  87.8957 345.5706 0001878  94.8272 265.3071 13.12440873268065
ONEWEB-0120             
1 47266U 20100J   26193.84465964 -.00000243  00000+0 -71013-3 0  9990
2 47266  87.8951 345.5669 0002001  96.7261 263.4095 13.12443303268095
ONEWEB-0121             
1 47267U 20100K   26193.45147292 -.00000386  00000+0 -11088-2 0  9992
2 47267  87.8952 345.6346 0001424  93.4834 266.6458 13.12442685267952
ONEWEB-0122             
1 47268U 20100L   26193.82672876 -.00000338  00000+0 -97511-3 0  9998
2 47268  87.8972 345.5647 0001936  98.3457 261.7892 13.12440590267918
ONEWEB-0123             
1 47269U 20100M   26193.82249639 -.00000185  00000+0 -54880-3 0  9998
2 47269  87.8951 345.5693 0001813  91.5979 268.5357 13.12441884268059
ONEWEB-0124             
1 47270U 20100N   26193.43114987  .00000055  00000+0  11772-3 0  9991
2 47270  87.8939 345.6506 0001577  89.8997 270.2312 13.12441621267888
ONEWEB-0125             
1 47271U 20100P   26193.40912912  .00000450  00000+0  12142-2 0  9993
2 47271  87.8966 345.6406 0001635  87.3458 272.7858 13.12443352267940
ONEWEB-0126             
1 47272U 20100Q   26193.42960547  .00000129  00000+0  32398-3 0  9992
2 47272  87.8961 345.6505 0001977  93.6292 266.5063 13.12441483268012
ONEWEB-0127             
1 47273U 20100R   26193.85299620 -.00000017  00000+0 -81526-4 0  9993
2 47273  87.8956 345.5639 0001952  96.6717 263.4634 13.12444128268099
ONEWEB-0128             
1 47274U 20100S   26193.79881435 -.00006942  00000+0 -19336-1 0  9998
2 47274  87.8952 345.5887 0001214  72.9494 287.1767 13.12480958268104
ONEWEB-0129             
1 47275U 20100T   26193.85469112  .00000034  00000+0  58492-4 0  9993
2 47275  87.8966 345.5535 0002951  96.3143 263.8321 13.12443367268043
