OBJECT_NAME,OBJECT_ID,EPOCH,MEAN_MOTION,ECCENTRICITY,INCLINATION,RA_OF_ASC_NODE,ARG_OF_PERICENTER,MEAN_ANOMALY,EPHEMERIS_TYPE,CLASSIFICATION_TYPE,NORAD_CAT_ID,ELEMENT_SET_NO,REV_AT_EPOCH,BSTAR,MEAN_MOTION_DOT,MEAN_MOTION_DDOT
ONEWEB-0068,2020-020Y,2026-07-12T13:26:39.196896,13.11418423,.0001631,87.8890,16.0125,90.2332,269.8983,0,U,45446,999,30592,.52635E-3,.199E-5,0
ONEWEB-0046,2020-020Z,2026-07-12T13:14:37.362912,13.11419040,.0001666,87.8880,16.0179,82.1064,278.0253,0,U,45447,999,30593,-.37433E-3,-.12E-5,0
ONEWEB-0063,2020-020AA,2026-07-12T12:06:28.801728,13.11415078,.00019187,87.8889,16.0285,79.5275,280.6069,0,U,45448,999,30601,.1181768E-2,.432E-5,0
ONEWEB-0019,2020-020AB,2026-07-12T13:02:12.626880,13.11408671,.00022766,87.8898,16.0081,99.6552,260.4834,0,U,45449,999,30586,-.12037023E-2,-.414E-5,0
ONEWEB-0094,2020-020AC,2026-07-12T11:45:09.738720,13.17648839,.00017693,87.9152,0.8170,98.2853,261.8479,0,U,45450,999,30964,-.13494902E-4,.8E-7,0
ONEWEB-0087,2020-020AD,2026-07-12T12:20:43.247616,13.11414707,.00015812,87.8920,16.0055,87.7010,272.4299,0,U,45451,999,30590,.26694499E-3,.107E-5,0
ONEWEB-0082,2020-020AE,2026-07-12T14:05:42.609408,13.11415292,.0001379,87.8889,16.0030,83.0565,277.0720,0,U,45452,999,30600,.78711E-3,.292E-5,0
ONEWEB-0050,2020-020AF,2026-07-12T14:07:40.891872,14.90467508,.0001743,88.9282,229.7600,182.5122,177.6098,0,U,45453,999,34416,.95966E-4,.957E-5,0
ONEWEB-0034,2020-020AG,2026-07-12T13:09:58.410144,13.11417854,.00018111,87.8881,16.0188,87.8614,272.2721,0,U,45454,999,30591,-.64698293E-3,-.217E-5,0
ONEWEB-0060,2020-020AH,2026-07-12T13:54:55.851840,13.11415575,.0001123,87.8886,16.0105,119.1770,240.9470,0,U,45455,999,30587,.13839E-2,.503E-5,0
ONEWEB-0086,2020-020AJ,2026-07-12T13:24:12.303072,13.11418727,.0001729,87.8892,16.0114,114.8228,245.3080,0,U,45456,999,30593,.40147E-3,.155E-5,0
ONEWEB-0088,2020-020AK,2026-07-12T12:52:38.275968,13.11416955,.00017719,87.8898,15.9905,76.6884,283.4442,0,U,45457,999,30586,-.1443127E-2,-.499E-5,0
ONEWEB-0102,2020-100A,2026-07-12T10:40:22.126656,13.12443071,.00020032,87.8957,345.6519,103.3890,256.7462,0,U,47258,999,26804,-.82609546E-3,-.284E-5,0
ONEWEB-0109,2020-100B,2026-07-12T20:01:28.391232,13.12443234,.000198,87.8969,345.5606,96.1702,263.9652,0,U,47259,999,26792,-.12625E-2,-.441E-5,0
ONEWEB-0110,2020-100C,2026-07-12T18:50:44.983104,13.12443508,.0001779,87.8967,345.5538,104.8003,255.3323,0,U,47260,999,26808,.56287E-3,.215E-5,0
ONEWEB-0111,2020-100D,2026-07-12T19:34:38.894880,13.12441399,.0001745,87.8967,345.5666,95.7636,264.3692,0,U,47261,999,26792,-.17897E-3,-.52E-6,0
ONEWEB-0114,2020-100E,2026-07-12T20:18:33.079680,13.12443402,.0002088,87.8973,345.5579,95.0063,265.1304,0,U,47262,999,26788,-.58686E-3,-.198E-5,0
ONEWEB-0117,2020-100F,2026-07-12T20:06:21.040128,13.12442790,.0001827,87.8965,345.5501,96.8328,263.3009,0,U,47263,999,26789,-.11771E-2,-.411E-5,0
ONEWEB-0118,2020-100G,2026-07-12T19:05:22.654176,13.12442346,.0001978,87.8965,345.5611,85.0712,275.0642,0,U,47264,999,26808,.12895E-2,.477E-5,0
ONEWEB-0119,2020-100H,2026-07-12T19:41:57.868224,13.12440873,.0001878,87.8957,345.5706,94.8272,265.3071,0,U,47265,999,26806,-.6873E-3,-.235E-5,0
ONEWEB-0120,2020-100J,2026-07-12T20:16:18.592896,13.12443303,.0002001,87.8951,345.5669,96.7261,263.4095,0,U,47266,999,26809,-.71013E-3,-.243E-5,0
ONEWEB-0121,2020-100K,2026-07-12T10:50:07.260288,13.12442685,.00014245,87.8952,345.6346,93.4834,266.6458,0,U,47267,999,26795,-.11087809E-2,-.386E-5,0
ONEWEB-0122,2020-100L,2026-07-12T19:50:29.364864,13.12440590,.0001936,87.8972,345.5647,98.3457,261.7892,0,U,47268,999,26791,-.97511E-3,-.338E-5,0
ONEWEB-0123,2020-100M,2026-07-12T19:44:23.688096,13.12441884,.0001813,87.8951,345.5693,91.5979,268.5357,0,U,47269,999,26805,-.5488E-3,-.185E-5,0
ONEWEB-0124,2020-100N,2026-07-12T10:20:51.348768,13.12441621,.00015775,87.8939,345.6506,89.8997,270.2312,0,U,47270,999,26788,.11772243E-3,.55E-6,0
ONEWEB-0125,2020-100P,2026-07-12T09:49:08.755968,13.12443352,.00016354,87.8966,345.6406,87.3458,272.7858,0,U,47271,999,26794,.12141886E-2,.45E-5,0
ONEWEB-0126,2020-100Q,2026-07-12T10:18:37.912608,13.12441483,.00019776,87.8961,345.6505,93.6292,266.5063,0,U,47272,999,26801,.32397886E-3,.129E-5,0
ONEWEB-0127,2020-100R,2026-07-12T20:28:18.871680,13.12444128,.0001952,87.8956,345.5639,96.6717,263.4634,0,U,47273,999,26809,-.81526E-4,-.17E-6,0
ONEWEB-0128,2020-100S,2026-07-12T19:10:17.559840,13.12480958,.0001214,87.8952,345.5887,72.9494,287.1767,0,U,47274,999,26810,-.19336E-1,-.6942E-4,0
ONEWEB-0129,2020-100T,2026-07-12T20:30:45.312768,13.12443367,.0002951,87.8966,345.5535,96.3143,263.8321,0,U,47275,999,26804,.58492E-4,.34E-6,0
